OBJECT_NAME,OBJECT_ID,EPOCH,MEAN_MOTION,ECCENTRICITY,INCLINATION,RA_OF_ASC_NODE,ARG_OF_PERICENTER,MEAN_ANOMALY,EPHEMERIS_TYPE,CLASSIFICATION_TYPE,NORAD_CAT_ID,ELEMENT_SET_NO,REV_AT_EPOCH,BSTAR,MEAN_MOTION_DOT,MEAN_MOTION_DDOT
OSCAR 7 (AO-7),1974-089B,2026-07-23T06:43:13.078272,12.53698643,.00126097,101.9909,217.9030,63.4131,306.8461,0,U,7530,999,36504,.41374086E-4,-.4E-6,0
PHASE 3B (AO-10),1983-058B,2026-07-21T08:35:33.935424,2.05869545,.59994286,25.9422,213.9384,125.0554,306.6315,0,U,14129,999,29619,0,.44E-6,0
UOSAT 2 (UO-11),1984-021B,2026-07-22T06:10:17.951808,14.90861576,.00091187,97.8082,168.4468,71.8134,288.4076,0,U,14781,999,26235,.12392881E-3,.1166E-4,0
LUSAT (LO-19),1990-005G,2026-07-23T07:43:43.578624,14.34132410,.00126889,98.8846,227.1220,99.6181,260.6437,0,U,20442,999,90757,.46530134E-4,.84E-6,0
EYESAT A (AO-27),1993-061C,2026-07-23T03:36:32.406048,14.30950552,.00082933,98.6861,271.5473,3.0265,357.0967,0,U,22825,999,71214,.39246937E-4,.58E-6,0
ITAMSAT (IO-26),1993-061D,2026-07-23T02:51:26.041824,14.31378310,.0008465,98.6808,271.4372,345.7745,14.3198,0,U,22826,999,71245,.34621063E-4,.47E-6,0
RADIO ROSTO (RS15),1994-085A,2026-07-23T02:58:11.905824,11.27583662,.01572201,64.8139,245.0977,357.2514,2.7532,0,U,23439,999,29995,.29316126E-3,-.32E-6,0
JAS-2 (FO-29),1996-046B,2026-07-23T04:02:31.352352,13.53275828,.03499691,98.5215,48.1081,3.2680,357.0634,0,U,24278,999,47803,-.5992518E-5,-.42E-6,0
TECHSAT 1B (GO-32),1998-043D,2026-07-23T05:44:48.586272,14.24434488,.00023322,99.0092,197.9112,102.2054,257.9385,0,U,25397,999,45646,.39427354E-4,.45E-6,0
ISS (ZARYA),1998-067A,2026-07-23T04:26:57.573312,15.49110422,.00069055,51.6313,121.9488,328.2241,31.8329,0,U,25544,999,57733,.18182545E-3,.9623E-4,0
PCSAT (NO-44),2001-043C,2026-07-23T06:27:41.707008,14.31967449,.0005844,67.0504,150.9466,267.3031,92.7402,0,U,26931,999,29561,.76733177E-4,.123E-5,0
SAUDISAT 1C (SO-50),2002-058C,2026-07-23T02:18:05.857632,14.83110516,.00742855,64.5523,17.8775,255.8289,103.4556,0,U,27607,999,26978,.12088401E-3,.878E-5,0
CUTE-1 (CO-55),2003-031E,2026-07-23T00:05:36.294720,14.24355144,.00108513,98.6747,212.1136,82.6312,277.6100,0,U,27844,999,19677,.1220184E-3,.238E-5,0
CUBESAT XI-IV (CO-57),2003-031J,2026-07-23T00:14:55.181760,14.23637690,.00107129,98.6778,211.8037,99.0689,261.1702,0,U,27848,999,19647,.10893948E-3,.205E-5,0
MOZHAETS 4 (RS22),2003-042A,2026-07-23T06:44:34.155168,14.73522377,.0011838,98.3487,29.6623,148.2656,328.9464,0,U,27939,999,22086,.68593234E-4,.392E-5,0
CUBESAT XI-V,2005-043F,2026-07-21T08:59:40.719840,14.72712744,.0015344,98.3024,358.7230,97.2573,263.0378,0,U,28895,999,10678,.15413557E-3,.932E-5,0
CUTE-1.7+APD II (CO-65),2008-021C,2026-07-23T02:35:47.334336,15.09750992,.00069686,97.8296,186.2868,265.7589,94.2843,0,U,32785,999,99061,.35921821E-3,.5733E-4,0
SEEDS II (CO-66),2008-021J,2026-07-22T10:34:46.546464,15.33845449,.00038326,97.7536,203.0544,141.9870,218.1643,0,U,32791,999,99269,.5978764E-3,.19519E-3,0
YUBILEINY (RS30),2008-025A,2026-07-23T07:31:35.212800,12.43181419,.00188297,82.5068,332.9679,230.3852,129.5566,0,U,32953,999,82418,.67002724E-3,.103E-5,0
KKS-1 (KISEKI),2009-002H,2026-07-23T05:09:41.775840,14.83203408,.00080726,98.1169,127.2277,162.9724,197.1761,0,U,33499,999,94153,.13864563E-3,.1077E-4,0
SWISSCUBE,2009-051B,2026-07-23T03:43:49.742976,14.62541744,.00081093,98.3998,112.6657,98.0034,262.2087,0,U,35932,999,89441,.17352267E-3,.831E-5,0
BEESAT-1,2009-051C,2026-07-22T20:11:41.821728,14.61770632,.00064514,98.3927,111.9069,110.1032,250.0863,0,U,35933,999,89439,.1434567E-3,.667E-5,0
ITUPSAT1,2009-051E,2026-07-22T17:26:18.156192,14.60486457,.00084883,98.4011,110.9439,122.2889,237.9135,0,U,35935,999,89392,.12333947E-3,.55E-5,0
XIWANG-1 (HOPE-1),2009-072B,2026-07-23T06:25:08.508576,13.16439359,.0007771,100.4040,157.5263,146.8491,213.3111,0,U,36122,999,79775,-.70884151E-3,-.315E-5,0
O/OREOS (USA 219),2010-062C,2026-07-22T10:05:34.335456,14.93871007,.00144818,71.9704,0.5182,351.1937,8.8977,0,U,37224,999,12190,.15681122E-3,.1606E-4,0
JUGNU,2011-058B,2026-07-23T00:32:28.762368,14.13785262,.00186531,19.9608,90.7073,112.3991,15.7019,0,U,37839,999,76410,.70105674E-4,.401E-5,0
SRMSAT,2011-058D,2026-07-23T08:04:34.923648,14.11582322,.00115608,19.9701,200.6646,241.2167,146.8753,0,U,37841,999,76293,.53261444E-4,.363E-5,0
STRAND-1,2013-009E,2026-07-23T01:12:19.700064,14.37182344,.00097296,98.3941,23.4053,120.1275,240.0877,0,U,39090,999,70221,.95167118E-4,.241E-5,0
ZACUBE-1 (TSHEPISOSAT),2013-066B,2026-07-20T20:47:42.553536,15.01347026,.00440791,97.7999,164.3670,137.0238,223.4444,0,U,39417,999,68578,.14536999E-3,.1847E-4,0
GOMX-1,2013-066Q,2026-07-23T06:34:12.715392,14.69554635,.01275589,97.6471,42.4595,322.1717,37.0576,0,U,39430,999,67521,.13686331E-3,.867E-5,0
